[{"OBJECT_NAME":"MOST","OBJECT_ID":"2003-031D","EPOCH":"2026-03-09T22:49:40.040832","MEAN_MOTION":14.21299328,"ECCENTRICITY":0.00099628,"INCLINATION":98.7084,"RA_OF_ASC_NODE":78.0491,"ARG_OF_PERICENTER":172.8548,"MEAN_ANOMALY":187.2773,"EPHEMERIS_TYPE":0,"CLASSIFICATION_TYPE":"U","NORAD_CAT_ID":27843,"ELEMENT_SET_NO":999,"REV_AT_EPOCH":17661,"BSTAR":7.3088665e-5,"MEAN_MOTION_DOT":1.16e-6,"MEAN_MOTION_DDOT":0},{"OBJECT_NAME":"SL-16 DEB","OBJECT_ID":"1996-051H","EPOCH":"2026-03-09T17:29:03.645024","MEAN_MOTION":14.10926353,"ECCENTRICITY":0.00593266,"INCLINATION":71.1221,"RA_OF_ASC_NODE":194.9861,"ARG_OF_PERICENTER":68.0463,"MEAN_ANOMALY":292.6949,"EPHEMERIS_TYPE":0,"CLASSIFICATION_TYPE":"U","NORAD_CAT_ID":24866,"ELEMENT_SET_NO":999,"REV_AT_EPOCH":51852,"BSTAR":0.00018714802,"MEAN_MOTION_DOT":2.96e-6,"MEAN_MOTION_DDOT":0}]
